GSAT0220 (GALILEO 24)   
1 43567U 18060D   24153.00335373 -.00000080  00000+0  00000+0 0  9996
2 43567  57.3063   1.9065 0002109 323.6265  36.4014  1.70475217 36440
BEIDOU-3 M13            
1 43622U 18072A   24153.16962364 -.00000018  00000+0  00000+0 0  9995
2 43622  55.9814  87.4140 0007963 307.1787  52.7254  1.86231401 38768
BEIDOU-3 M14            
1 43623U 18072B   24153.03508048 -.00000016  00000+0  00000+0 0  9995
2 43623  55.9832  87.4116 0006137 331.6090  28.3348  1.86231391 38753
GPS BIII-1              
1 43873U 18109A   24153.37395097  .00000063  00000+0  00000+0 0  9999
2 43873  55.2918 121.6528 0028960 195.7474 336.1226  2.00555105 40116
METEOR-M2 2             
1 44387U 19038A   24154.18305546  .00000067  00000+0  49141-4 0  9990
2 44387  98.8259 123.3488 0001862  43.4960 316.6365 14.23890207255256
GPS BIII-2              
1 44506U 19056A   24152.00343001 -.00000075  00000+0  00000+0 0  9996
2 44506  55.8410   0.7633 0041733 188.0601 335.0019  2.00571338 35081
BEIDOU-3 M23            
1 44542U 19061A   24152.33847174  .00000049  00000+0  00000+0 0  9998
2 44542  54.4439 207.9283 0007404 344.8632  15.1905  1.86231137 31889
BEIDOU-3 M24            
1 44543U 19061B   24153.67350910  .00000061  00000+0  00000+0 0  9998
2 44543  54.4423 207.8520 0004906 323.5816 123.8020  1.86231400 31909
BEIDOU-3 M21            
1 44793U 19078A   24150.03644884 -.00000055  00000+0  00000+0 0  9990
2 44793  54.5777 326.0275 0006523  32.2940 327.7477  1.86232069 30697
BEIDOU-3 M22            
1 44794U 19078B   24153.38797143 -.00000074  00000+0  00000+0 0  9990
2 44794  54.5491 325.8877 0004163  31.7301 328.2945  1.86232532 30768
ELEKTRO-L 3             
1 44903U 19095A   24153.56920250 -.00000094  00000+0  00000+0 0  9990
2 44903   0.0787 226.4288 0000703 197.4636 107.5854  1.00273388 16225
GPS BIII-3              
1 45854U 20041A   24152.86299353 -.00000068  00000+0  00000+0 0  9995
2 45854  56.1091  58.0683 0042279 193.0776 166.6595  2.00558716 29066
COSMOS 2547             
1 46805U 20075A   24154.22716501  .00000047  00000+0  00000+0 0  9996
2 46805  64.5993 217.3763 0008350 240.2474 119.7420  2.13103044 28034
GPS BIII-4              
1 46826U 20078A   24153.35235323 -.00000013  00000+0  00000+0 0  9997
2 46826  54.1862 241.0522 0045840 196.3640 134.9867  2.00560022 26542
GSAT0223 (GALILEO 27)   
1 49809U 21116A   24151.39872477 -.00000076  00000+0  00000+0 0  9993
2 49809  57.2971   1.8444 0001385 127.3068  58.3459  1.70475417 15431
GSAT0224 (GALILEO 28)   
1 49810U 21116B   24153.60756060 -.00000082  00000+0  00000+0 0  9997
2 49810  57.2983   1.7830 0001303 108.6675 105.1003  1.70475417 15481
GOES 18                 
1 51850U 22021A   24153.49788995  .00000100  00000+0  00000+0 0  9999
2 51850   0.0300 107.4382 0000404 307.7533 237.5090  1.00271832  8294
METEOR-M2 3             
1 57166U 23091A   24154.14802225  .00000029  00000+0  31842-4 0  9992
2 57166  98.7134 208.9557 0004343 158.6321 201.5040 14.23896157 48487
METEOR-M2 4             
1 59051U 24039A   24154.14978935  .00000064  00000+0  48002-4 0  9997
2 59051  98.5968 116.4141 0007334 159.2956 200.8520 14.22228882 13357
